ADRAS-J                 
1 58992U 24034A   24159.53308471  .00004830  00000+0  45109-3 0  9994
2 58992  98.2113 132.1177 0045725  81.2340 279.4053 14.93881594 16427
